{
  "type": "FeatureCollection",
  "features": [
    {
      "type": "Feature",
      "properties": {
        "norad_id": 31423,
        "name": "FENGYUN 1C DEB",
        "group": "fengyun-1c-debris",
        "lat": 41.88951380261201,
        "lon": -41.939146235183735,
        "alt_km": 835.5453314758679,
        "timestamp": "2025-12-10T23:33:13.099356+00:00",
        "meta_object_name": "FENGYUN 1C DEB",
        "meta_object_id": "1999-025BTK",
        "meta_epoch": "2025-12-06T16:24:39.566592",
        "meta_mean_motion": 14.22965368,
        "meta_eccentricity": 0.00357923,
        "meta_inclination": 98.5827,
        "meta_ra_of_asc_node": 321.6576,
        "meta_arg_of_pericenter": 211.842,
        "meta_mean_anomaly": 148.0595,
        "meta_ephemeris_type": 0,
        "meta_classification_type": "U",
        "meta_norad_cat_id": 31423,
        "meta_element_set_no": 999,
        "meta_rev_at_epoch": 96882,
        "meta_bstar": 0.00026310913,
        "meta_mean_motion_dot": 5.53e-06,
        "meta_mean_motion_ddot": 0,
        "tle_line1": "1 31423U 99025BTK 25340.68379128  .00000553  00000+0  26311-3 0  9994",
        "tle_line2": "2 31423  98.5827 321.6576 0035792 211.8420 148.0595 14.22965368968829"
      },
      "geometry": {
        "type": "Point",
        "coordinates": [
          -41.939146235183735,
          41.88951380261201
        ]
      }
    },
    {
      "type": "Feature",
      "properties": {
        "norad_id": 31424,
        "name": "FENGYUN 1C DEB",
        "group": "fengyun-1c-debris",
        "lat": -72.22153807509065,
        "lon": -178.6550892617068,
        "alt_km": 927.466078917405,
        "timestamp": "2025-12-10T23:33:13.099365+00:00",
        "meta_object_name": "FENGYUN 1C DEB",
        "meta_object_id": "1999-025BTL",
        "meta_epoch": "2025-12-09T02:01:32.178144",
        "meta_mean_motion": 14.08354358,
        "meta_eccentricity": 0.00944885,
        "meta_inclination": 98.4824,
        "meta_ra_of_asc_node": 27.297,
        "meta_arg_of_pericenter": 115.6393,
        "meta_mean_anomaly": 245.4576,
        "meta_ephemeris_type": 0,
        "meta_classification_type": "U",
        "meta_norad_cat_id": 31424,
        "meta_element_set_no": 999,
        "meta_rev_at_epoch": 63119,
        "meta_bstar": 0.00023729008,
        "meta_mean_motion_dot": 3.83e-06,
        "meta_mean_motion_ddot": 0,
        "tle_line1": "1 31424U 99025BTL 25343.08440021  .00000383  00000+0  23729-3 0  9994",
        "tle_line2": "2 31424  98.4824  27.2970 0094488 115.6393 245.4576 14.08354358631193"
      },
      "geometry": {
        "type": "Point",
        "coordinates": [
          -178.6550892617068,
          -72.22153807509065
        ]
      }
    },
    {
      "type": "Feature",
      "properties": {
        "norad_id": 31426,
        "name": "FENGYUN 1C DEB",
        "group": "fengyun-1c-debris",
        "lat": -15.001979739574981,
        "lon": -39.59156010649089,
        "alt_km": 696.3004814737351,
        "timestamp": "2025-12-10T23:33:13.099374+00:00",
        "meta_object_name": "FENGYUN 1C DEB",
        "meta_object_id": "1999-025BTN",
        "meta_epoch": "2025-12-08T22:53:41.058816",
        "meta_mean_motion": 13.90002274,
        "meta_eccentricity": 0.0324965,
        "meta_inclination": 98.5794,
        "meta_ra_of_asc_node": 140.853,
        "meta_arg_of_pericenter": 196.4375,
        "meta_mean_anomaly": 298.4345,
        "meta_ephemeris_type": 0,
        "meta_classification_type": "U",
        "meta_norad_cat_id": 31426,
        "meta_element_set_no": 999,
        "meta_rev_at_epoch": 93520,
        "meta_bstar": 0.0040109,
        "meta_mean_motion_dot": 7.539e-05,
        "meta_mean_motion_ddot": 0,
        "tle_line1": "1 31426U 99025BTN 25342.95394744  .00007539  00000+0  40109-2 0  9991",
        "tle_line2": "2 31426  98.5794 140.8530 0324965 196.4375 298.4345 13.90002274935207"
      },
      "geometry": {
        "type": "Point",
        "coordinates": [
          -39.59156010649089,
          -15.001979739574981
        ]
      }
    },
    {
      "type": "Feature",
      "properties": {
        "norad_id": 31427,
        "name": "FENGYUN 1C DEB",
        "group": "fengyun-1c-debris",
        "lat": 55.5443022595262,
        "lon": 81.11393689963877,
        "alt_km": 673.5561741280089,
        "timestamp": "2025-12-10T23:33:13.099383+00:00",
        "meta_object_name": "FENGYUN 1C DEB",
        "meta_object_id": "1999-025BTP",
        "meta_epoch": "2025-12-09T06:08:13.218720",
        "meta_mean_motion": 14.58548862,
        "meta_eccentricity": 0.003144,
        "meta_inclination": 98.6698,
        "meta_ra_of_asc_node": 92.1632,
        "meta_arg_of_pericenter": 29.6013,
        "meta_mean_anomaly": 330.6956,
        "meta_ephemeris_type": 0,
        "meta_classification_type": "U",
        "meta_norad_cat_id": 31427,
        "meta_element_set_no": 999,
        "meta_rev_at_epoch": 96830,
        "meta_bstar": 0.0032818,
        "meta_mean_motion_dot": 0.00015343,
        "meta_mean_motion_ddot": 0,
        "tle_line1": "1 31427U 99025BTP 25343.25570855  .00015343  00000+0  32818-2 0  9995",
        "tle_line2": "2 31427  98.6698  92.1632 0031440  29.6013 330.6956 14.58548862968300"
      },
      "geometry": {
        "type": "Point",
        "coordinates": [
          81.11393689963877,
          55.5443022595262
        ]
      }
    },
    {
      "type": "Feature",
      "properties": {
        "norad_id": 31428,
        "name": "FENGYUN 1C DEB",
        "group": "fengyun-1c-debris",
        "lat": -76.26551148099095,
        "lon": 95.6884741089116,
        "alt_km": 767.281566912281,
        "timestamp": "2025-12-10T23:33:13.099392+00:00",
        "meta_object_name": "FENGYUN 1C DEB",
        "meta_object_id": "1999-025BTQ",
        "meta_epoch": "2025-12-08T09:26:53.274624",
        "meta_mean_motion": 14.41981038,
        "meta_eccentricity": 0.00636007,
        "meta_inclination": 99.039,
        "meta_ra_of_asc_node": 313.5898,
        "meta_arg_of_pericenter": 166.601,
        "meta_mean_anomaly": 346.5883,
        "meta_ephemeris_type": 0,
        "meta_classification_type": "U",
        "meta_norad_cat_id": 31428,
        "meta_element_set_no": 999,
        "meta_rev_at_epoch": 97447,
        "meta_bstar": 0.0011967706,
        "meta_mean_motion_dot": 3.973e-05,
        "meta_mean_motion_ddot": 0,
        "tle_line1": "1 31428U 99025BTQ 25342.39367216  .00003973  00000+0  11968-2 0  9994",
        "tle_line2": "2 31428  99.0390 313.5898 0063600 166.6010 346.5883 14.41981038974479"
      },
      "geometry": {
        "type": "Point",
        "coordinates": [
          95.6884741089116,
          -76.26551148099095
        ]
      }
    },
    {
      "type": "Feature",
      "properties": {
        "norad_id": 31429,
        "name": "FENGYUN 1C DEB",
        "group": "fengyun-1c-debris",
        "lat": 69.80811943655513,
        "lon": 9.366684125443166,
        "alt_km": 799.3071293907278,
        "timestamp": "2025-12-10T23:33:13.099401+00:00",
        "meta_object_name": "FENGYUN 1C DEB",
        "meta_object_id": "1999-025BTR",
        "meta_epoch": "2025-12-09T22:29:22.078176",
        "meta_mean_motion": 14.22548999,
        "meta_eccentricity": 0.00147842,
        "meta_inclination": 98.6905,
        "meta_ra_of_asc_node": 32.9121,
        "meta_arg_of_pericenter": 71.5994,
        "meta_mean_anomaly": 54.8894,
        "meta_ephemeris_type": 0,
        "meta_classification_type": "U",
        "meta_norad_cat_id": 31429,
        "meta_element_set_no": 999,
        "meta_rev_at_epoch": 95913,
        "meta_bstar": 0.0012999343,
        "meta_mean_motion_dot": 2.863e-05,
        "meta_mean_motion_ddot": 0,
        "tle_line1": "1 31429U 99025BTR 25343.93706109  .00002863  00000+0  12999-2 0  9996",
        "tle_line2": "2 31429  98.6905  32.9121 0014784  71.5994  54.8894 14.22548999959133"
      },
      "geometry": {
        "type": "Point",
        "coordinates": [
          9.366684125443166,
          69.80811943655513
        ]
      }
    },
    {
      "type": "Feature",
      "properties": {
        "norad_id": 31430,
        "name": "FENGYUN 1C DEB",
        "group": "fengyun-1c-debris",
        "lat": -44.81262918582198,
        "lon": 56.80630167477699,
        "alt_km": 814.1440857700427,
        "timestamp": "2025-12-10T23:33:13.099410+00:00",
        "meta_object_name": "FENGYUN 1C DEB",
        "meta_object_id": "1999-025BTS",
        "meta_epoch": "2025-12-10T16:06:15.202656",
        "meta_mean_motion": 14.25589315,
        "meta_eccentricity": 0.00269702,
        "meta_inclination": 98.7435,
        "meta_ra_of_asc_node": 47.7022,
        "meta_arg_of_pericenter": 48.5066,
        "meta_mean_anomaly": 114.3332,
        "meta_ephemeris_type": 0,
        "meta_classification_type": "U",
        "meta_norad_cat_id": 31430,
        "meta_element_set_no": 999,
        "meta_rev_at_epoch": 96088,
        "meta_bstar": 0.0014060488,
        "meta_mean_motion_dot": 3.298e-05,
        "meta_mean_motion_ddot": 0,
        "tle_line1": "1 31430U 99025BTS 25344.67100929  .00003298  00000+0  14060-2 0  9992",
        "tle_line2": "2 31430  98.7435  47.7022 0026970  48.5066 114.3332 14.25589315960885"
      },
      "geometry": {
        "type": "Point",
        "coordinates": [
          56.80630167477699,
          -44.81262918582198
        ]
      }
    }
  ]
}